NORAD_CAT_ID,OBJECT_NAME,OBJECT_TYPE,EPOCH,MEAN_MOTION,ECCENTRICITY,INCLINATION,RA_OF_ASC_NODE,ARG_OF_PERICENTER,MEAN_ANOMALY,BSTAR,MEAN_MOTION_DOT,MEAN_MOTION_DDOT,TLE_LINE0,TLE_LINE1,TLE_LINE2,SEMIMAJOR_AXIS,PERIOD,APOGEE,PERIGEE,DECAYED
50159.0,STARLINK-3297,PAYLOAD,2022-02-23 22:00:00,15.18444885,0.0001962,53.2173,39.8525,38.7418,154.6326,-0.0340829999999999,-0.00665865,0.0,0 STARLINK-3297,1 50159U 21125D   22054.91667824 -.00665865  00000-0 -34083-1 0  9994,2 50159  53.2173  39.8525 0001962  38.7418 154.6326 15.18444885  3664,6888.677,94.834,511.894,509.19,0.0
50159.0,STARLINK-3297,PAYLOAD,2022-02-24 14:00:01,15.17511859,0.0001754,53.2173,36.8187,45.6136,192.9028,-0.035048,-0.00666425,0.0,0 STARLINK-3297,1 50159U 21125D   22055.58334491 -.00666425  00000-0 -35048-1 0  9994,2 50159  53.2173  36.8187 0001754  45.6136 192.9028 15.17511859  3634,6891.5,94.892,514.5740000000002,512.1569999999998,0.0
50159.0,STARLINK-3297,PAYLOAD,2022-02-24 22:00:00,15.16903604,0.0001641999999999,53.2177,35.3019,40.8175,219.5067,-0.024884,-0.00465934,0.0,0 STARLINK-3297,1 50159U 21125D   22055.91667824 -.00465934  00000-0 -24884-1 0  9998,2 50159  53.2177  35.3019 0001642  40.8175 219.5067 15.16903604  3611,6893.342,94.93,516.339,514.076,0.0
50159.0,STARLINK-3297,PAYLOAD,2022-02-25 06:00:00,15.16577416,0.0001942,53.2174,33.7889,38.9428,242.4734,-0.035867,-0.00664079,0.0,0 STARLINK-3297,1 50159U 21125D   22056.25001157 -.00664079  00000-0 -35867-1 0  9991,2 50159  53.2174  33.7889 0001942  38.9428 242.4734 15.16577416 10473,6894.331,94.951,517.535,514.857,0.0
50159.0,STARLINK-3297,PAYLOAD,2022-02-25 14:00:01,15.16112687,0.0001622,53.2173,32.2744,46.6715,255.3537,-0.036552,-0.00667543,0.0,0 STARLINK-3297,1 50159U 21125D   22056.58334491 -.00667543  00000-0 -36552-1 0  9998,2 50159  53.2173  32.2744 0001622  46.6715 255.3537 15.16112687  3635,6895.74,94.98,518.7230000000002,516.486,0.0
50159.0,STARLINK-3297,PAYLOAD,2022-02-25 22:00:00,15.15643376,0.0001683,53.2175,30.7608,44.0557,278.0191,-0.036705,-0.0066179,0.0,0 STARLINK-3297,1 50159U 21125D   22056.91667824 -.00661790  00000-0 -36705-1 0  9992,2 50159  53.2175  30.7608 0001683  44.0557 278.0191 15.15643376  3633,6897.163000000001,95.009,520.189,517.867,0.0
50159.0,STARLINK-3297,PAYLOAD,2022-02-26 14:00:01,15.14712832,0.0001701,53.2174,27.7398,40.0856,320.4028,-0.03803,-0.00667377,0.0,0 STARLINK-3297,1 50159U 21125D   22057.58334491 -.00667377  00000-0 -38030-1 0  9997,2 50159  53.2174  27.7398 0001701  40.0856 320.4028 15.14712832 10679,6899.988,95.068,523.026,520.679,0.0
50159.0,STARLINK-3297,PAYLOAD,2022-02-26 22:00:00,15.14243439,0.0001887,53.2175,26.2298,33.9764,344.8796,-0.038172,-0.00661423,0.0,0 STARLINK-3297,1 50159U 21125D   22057.91667824 -.00661423  00000-0 -38172-1 0  9996,2 50159  53.2175  26.2298 0001887  33.9764 344.8796 15.14243439  3640,6901.413000000001,95.097,524.581,521.976,0.0
50159.0,STARLINK-3297,PAYLOAD,2022-02-27 14:00:01,15.13312426,0.0001673,53.2174,23.2151,41.2043,12.7018,-0.039484,-0.00666061,0.0,0 STARLINK-3297,1 50159U 21125D   22058.58334491 -.00666061  00000-0 -39484-1 0  9991,2 50159  53.2174  23.2151 0001673  41.2043  12.7018 15.13312426  3638,6904.244000000002,95.155,527.264,524.9540000000002,0.0
50159.0,STARLINK-3297,PAYLOAD,2022-02-27 22:00:00,15.12844024,0.000191,53.2174,21.7084,35.0272,35.5642,-0.039753,-0.00662102,0.0,0 STARLINK-3297,1 50159U 21125D   22058.91667824 -.00662102  00000-0 -39753-1 0  9998,2 50159  53.2174  21.7084 0001910  35.0272  35.5642 15.12844024 10889,6905.669,95.185,528.8530000000002,526.215,0.0
50159.0,STARLINK-3297,PAYLOAD,2022-02-28 14:00:01,15.11912312,0.0001728,53.2174,18.7001,42.4861,59.7919,-0.041009,-0.00665182,0.0,0 STARLINK-3297,1 50159U 21125D   22059.58334491 -.00665182  00000-0 -41009-1 0  9991,2 50159  53.2174  18.7001 0001728  42.4861  59.7919 15.11912312  3632,6908.505,95.244,531.564,529.177,0.0
50159.0,STARLINK-3297,PAYLOAD,2022-02-28 22:00:00,15.11444584,0.0001962,53.2176,17.1967,36.5609,80.7203,-0.041385,-0.00662753,0.0,0 STARLINK-3297,1 50159U 21125D   22059.91667824 -.00662753  00000-0 -41385-1 0  9995,2 50159  53.2176  17.1967 0001962  36.5609  80.7203 15.11444584 11036,6909.931,95.273,533.151,530.44,0.0
50159.0,STARLINK-3297,PAYLOAD,2022-03-01 14:00:01,15.10512374,0.0001737,53.2174,14.1948,46.7375,98.8665,-0.042599,-0.00664579,0.0,0 STARLINK-3297,1 50159U 21125D   22060.58334491 -.00664579  00000-0 -42599-1 0  9997,2 50159  53.2174  14.1948 0001737  46.7375  98.8665 15.10512374  3623,6912.773,95.332,535.839,533.438,0.0
50159.0,STARLINK-3297,PAYLOAD,2022-03-01 22:00:01,15.10044912,0.0001923,53.2177,12.6949,40.8849,118.1033,-0.043039,-0.00662926,0.0,0 STARLINK-3297,1 50159U 21125D   22060.91668981 -.00662926  00000-0 -43039-1 0  9992,2 50159  53.2177  12.6949 0001923  40.8849 118.1033 15.10044912 11181,6914.2,95.361,537.395,534.735,0.0
50159.0,STARLINK-3297,PAYLOAD,2022-03-02 14:00:01,15.08979487,0.0001710999999999,53.2174,9.699,45.7843,138.1213,-0.013578,-0.00210928,0.0,0 STARLINK-3297,1 50159U 21125D   22061.58334491 -.00210928  00000-0 -13578-1 0  9998,2 50159  53.2174   9.6990 0001711  45.7843 138.1213 15.08979487 11287,6917.454000000002,95.429,540.503,538.135,0.0
50159.0,STARLINK-3297,PAYLOAD,2022-03-02 22:00:00,15.08837499,0.0001812,53.2177,8.2025,45.2546,150.319,-4.0123e-05,-9.27e-06,0.0,0 STARLINK-3297,1 50159U 21125D   22061.91667824 -.00000927  00000-0 -40123-4 0  9999,2 50159  53.2177   8.2025 0001812  45.2546 150.3190 15.08837499 11333,6917.888000000001,95.438,541.007,538.5,0.0
50159.0,STARLINK-3297,PAYLOAD,2022-03-03 06:00:00,15.08829732,0.0001773,53.2207,6.7112,39.5848,167.704,0.0015549,0.00024538,0.0,0 STARLINK-3297,1 50159U 21125D   22062.25001157  .00024538  00000-0  15549-2 0  9992,2 50159  53.2207   6.7112 0001773  39.5848 167.7040 15.08829732 11386,6917.9119999999975,95.438,541.003,538.55,0.0
50159.0,STARLINK-3297,PAYLOAD,2022-03-03 14:00:01,15.08849501,0.0001602,53.2204,5.2134,43.5218,175.3702,-0.00038081,-6.345e-05,0.0,0 STARLINK-3297,1 50159U 21125D   22062.58334491 -.00006345  00000-0 -38081-3 0  9993,2 50159  53.2204   5.2134 0001602  43.5218 175.3702 15.08849501  3633,6917.851,95.437,540.825,538.6080000000002,0.0
50159.0,STARLINK-3297,PAYLOAD,2022-03-03 22:00:00,15.08878441,0.0001579,53.22,3.7165,47.3107,183.1829,-0.0033554,-0.0005335,0.0,0 STARLINK-3297,1 50159U 21125D   22062.91667824 -.00053350  00000-0 -33554-2 0  9996,2 50159  53.2200   3.7165 0001579  47.3107 183.1829 15.08878441  3629,6917.763000000001,95.435,540.72,538.536,0.0
50159.0,STARLINK-3297,PAYLOAD,2022-03-04 06:00:02,15.08819275,0.0001728,53.2203,2.2227,38.9489,203.2438,0.0024315,0.000386,0.0,0 STARLINK-3297,1 50159U 21125D   22063.25002315  .00038600  00000-0  24315-2 0  9996,2 50159  53.2203   2.2227 0001728  38.9489 203.2438 15.08819275 11539,6917.944,95.439,541.004,538.613,0.0
50159.0,STARLINK-3297,PAYLOAD,2022-03-04 14:00:01,15.08840718,0.0001561999999999,53.2201,0.7247,42.534,211.2536,0.00051616,7.936e-05,0.0,0 STARLINK-3297,1 50159U 21125D   22063.58335648  .00007936  00000-0  51616-3 0  9993,2 50159  53.2201   0.7247 0001562  42.5340 211.2536 15.08840718  3631,6917.878000000002,95.438,540.8240000000002,538.663,0.0
50159.0,STARLINK-3297,PAYLOAD,2022-03-04 22:00:00,15.088778,0.0001556,53.2201,359.2289,45.5604,219.7586,-0.0031231,-0.00049701,0.0,0 STARLINK-3297,1 50159U 21125D   22063.91667824 -.00049701  00000-0 -31231-2 0  9992,2 50159  53.2201 359.2289 0001556  45.5604 219.7586 15.08877800 11637,6917.765,95.435,540.706,538.553,0.0
50159.0,STARLINK-3297,PAYLOAD,2022-03-05 06:00:00,15.08810064,0.000173,53.2199,357.7340000000001,38.2948,238.652,0.0032163,0.0005122999999999,0.0,0 STARLINK-3297,1 50159U 21125D   22064.25001157  .00051230  00000-0  32163-2 0  9994,2 50159  53.2199 357.7340 0001730  38.2948 238.6520 15.08810064  3670,6917.972,95.439,541.034,538.64,0.0
50159.0,STARLINK-3297,PAYLOAD,2022-03-05 14:00:01,15.08843653,0.0001604,53.2199,356.2361,43.0801,245.4623,-0.0017134,-0.00027456,0.0,0 STARLINK-3297,1 50159U 21125D   22064.58334491 -.00027456  00000-0 -17134-2 0  9996,2 50159  53.2199 356.2361 0001604  43.0801 245.4623 15.08843653  3602,6917.869000000002,95.437,540.844,538.625,0.0
50159.0,STARLINK-3297,PAYLOAD,2022-03-05 16:00:00,15.08818182,0.0001589,53.2197,355.8616,45.1373,336.3144,0.0014139,0.00022272,0.0,0 STARLINK-3297,1 50159U 21125D   22064.66667824  .00022272  00000-0  14139-2 0  9995,2 50159  53.2197 355.8616 0001589  45.1373 336.3144 15.08818182 11748,6917.946999999999,95.439,540.911,538.7130000000002,0.0
50159.0,STARLINK-3297,PAYLOAD,2022-03-05 22:00:01,15.08842198,0.0001720999999999,53.2198,354.7401,47.4494,252.7434,-0.00076474,-0.00012439,0.0,0 STARLINK-3297,1 50159U 21125D   22064.91668981 -.00012439  00000-0 -76474-3 0  9995,2 50159  53.2198 354.7401 0001721  47.4494 252.7434 15.08842198  3632,6917.874,95.437,540.929,538.548,0.0
50159.0,STARLINK-3297,PAYLOAD,2022-03-06 14:00:01,15.08818019,0.0001827,53.2199,351.7472,48.5089,274.8339,0.0020418,0.00032337,0.0,0 STARLINK-3297,1 50159U 21125D   22065.58334491  .00032337  00000-0  20418-2 0  9998,2 50159  53.2199 351.7472 0001827  48.5089 274.8339 15.08818019 11887,6917.948,95.439,541.076,538.549,0.0
50159.0,STARLINK-3297,PAYLOAD,2022-03-06 22:00:00,15.08874035,0.0001881,53.22,350.2514,49.4501,285.4706,-0.0032931,-0.00052366,0.0,0 STARLINK-3297,1 50159U 21125D   22065.91667824 -.00052366  00000-0 -32931-2 0  9993,2 50159  53.2200 350.2514 0001881  49.4501 285.4706 15.08874035  3629,6917.776,95.435,540.943,538.34,0.0
50159.0,STARLINK-3297,PAYLOAD,2022-03-07 06:00:00,15.08816186,0.000197,53.2199,348.7564,42.6663,303.8628,0.0017604,0.00027822,0.0,0 STARLINK-3297,1 50159U 21125D   22066.25001157  .00027822  00000-0  17604-2 0  9999,2 50159  53.2199 348.7564 0001970  42.6663 303.8628 15.08816186 11985,6917.953,95.439,541.181,538.455,0.0
